SAUDISAT 2              
1 28371U 04025F   26199.90063965  .00000090  00000+0  31189-4 0  9991
2 28371  98.5522 200.7043 0024298 196.5846 163.4559 14.56699371170365
COSMOS 2407             
1 28380U 04028A   26199.69116568  .00000028  00000+0  12634-4 0  9993
2 28380  82.9584  51.4967 0039582 162.3450 267.0432 13.76336745104216
COSMOS 2414             
1 28521U 05002A   26199.89633483  .00000041  00000+0  21594-4 0  9995
2 28521  82.9491  19.6544 0038902 237.8818 121.8567 13.87928622 88218
INMARSAT 4-F1           
1 28628U 05009A   26199.72895045  .00000024  00000+0  00000+0 0  9991
2 28628   5.2106  42.7946 0002671  73.2874 260.9597  1.00272043 77989
SJ-7                    
1 28737U 05024A   26199.52131998  .00003534  00000+0  15792-3 0  9994
2 28737  97.7274 230.4757 0013603 283.8172  76.1550 15.21961286152796
CUBESAT XI-V            
1 28895U 05043F   26199.38529580  .00000626  00000+0  10630-3 0  9997
2 28895  98.3020 355.6693 0015320 105.9745 254.3151 14.72706792106345
HINODE (SOLAR-B)        
1 29479U 06041A   26199.45750348  .00000261  00000+0  53208-4 0  9995
2 29479  98.0548 215.1492 0017289 183.9439 176.1633 14.68660447 59462
SHIJIAN-6 02B (SJ-6 02B)
1 29506U 06046B   26200.00288149  .00000342  00000+0  31203-4 0  9991
2 29506  97.7139 228.8643 0012888 322.6609  37.3718 15.01440984 75511
DMSP 5D-3 F17 (USA 191) 
1 29522U 06050A   26199.98972905 -.00000033  00000+0  55406-5 0  9998
2 29522  98.7388 205.9104 0009497 331.5388  28.5266 14.14996235 16927
LAPAN-TUBSAT            
1 29709U 07001A   26199.90289501  .00000778  00000+0  95498-4 0  9996
2 29709  98.1355 199.8442 0013666  83.0847 277.1922 14.85981000 55869
HAIYANG-1B              
1 31113U 07010A   26199.88849152  .00000036  00000+0  29333-4 0  9991
2 31113  98.3517 180.5073 0014759 105.7218 254.5595 14.31033902  5172
COSMO-SKYMED 2          
1 32376U 07059A   26199.89100322  .00000157  00000+0  26246-4 0  9990
2 32376  97.8896  23.0305 0001451  93.9220 266.2159 14.82152094  6709
CARTOSAT-2A             
1 32783U 08021A   26199.90617376  .00000560  00000+0  81942-4 0  9998
2 32783  97.7611 247.5297 0012159  15.9887 344.1706 14.79280034983494
CUTE-1.7+APD II (CO-65) 
1 32785U 08021C   26199.86636480  .00002027  00000+0  12990-3 0  9998
2 32785  97.8299 181.9540 0006833 284.1756  75.8712 15.09718955989974
SEEDS II (CO-66)        
1 32791U 08021J   26199.46116429  .00009670  00000+0  29894-3 0  9999
2 32791  97.7530 198.8780 0003459 149.6253 210.5190 15.33733639992086
YUBILEINY (RS30)        
1 32953U 08025A   26199.88730465  .00000056  00000+0  33226-3 0  9994
2 32953  82.5070 335.7200 0018714 240.4084 119.5132 12.43180807823637
FENGYUN 3A              
1 32958U 08026A   26199.83533048  .00000016  00000+0  28234-4 0  9993
2 32958  98.6886 140.0776 0009527  42.4086 317.7825 14.19576918939898
HUANJING 1A (HJ-1A)     
1 33320U 08041A   26199.92389855  .00001046  00000+0  13120-3 0  9990
2 33320  97.6703 184.5390 0020089  38.2434 322.0202 14.84055473963110
HUANJING 1B (HJ-1B)     
1 33321U 08041B   26199.97501865  .00000092  00000+0  17395-4 0  9992
2 33321  97.6538 187.6633 0037927  79.3715 281.1767 14.83367514963121
SHIJIAN-6 03A (SJ-6 03A)
1 33408U 08053A   26199.90147512  .00002794  00000+0  14322-3 0  9996
2 33408  97.8393 234.3288 0009549 261.2499  98.7652 15.17436244967779
SHIJIAN-6 03B (SJ-6 03B)
1 33409U 08053B   26199.96062253 -.00000167  00000+0 -72105-5 0  9990
2 33409  97.8560 220.3795 0017786 296.7183  63.2222 15.04379049967527
