OBJECT_NAME,OBJECT_ID,EPOCH,MEAN_MOTION,ECCENTRICITY,INCLINATION,RA_OF_ASC_NODE,ARG_OF_PERICENTER,MEAN_ANOMALY,EPHEMERIS_TYPE,CLASSIFICATION_TYPE,NORAD_CAT_ID,ELEMENT_SET_NO,REV_AT_EPOCH,BSTAR,MEAN_MOTION_DOT,MEAN_MOTION_DDOT
SAUDISAT 2,2004-025F,2026-07-18T21:36:55.265760,14.56699371,.00242981,98.5522,200.7043,196.5846,163.4559,0,U,28371,999,17036,.31189337E-4,.9E-6,0
COSMOS 2407,2004-028A,2026-07-18T16:35:16.714752,13.76336745,.00395825,82.9584,51.4967,162.3450,267.0432,0,U,28380,999,10421,.12634313E-4,.28E-6,0
COSMOS 2414,2005-002A,2026-07-18T21:30:43.329312,13.87928622,.00389028,82.9491,19.6544,237.8818,121.8567,0,U,28521,999,8821,.21593838E-4,.41E-6,0
INMARSAT 4-F1,2005-009A,2026-07-18T17:29:41.318880,1.00272043,.00026712,5.2106,42.7946,73.2874,260.9597,0,U,28628,999,7798,0,.24E-6,0
SJ-7,2005-024A,2026-07-18T12:30:42.046272,15.21961286,.00136035,97.7274,230.4757,283.8172,76.1550,0,U,28737,999,15279,.15792383E-3,.3534E-4,0
CUBESAT XI-V,2005-043F,2026-07-18T09:14:49.557120,14.72706792,.00153208,98.3020,355.6693,105.9745,254.3151,0,U,28895,999,10634,.10630429E-3,.626E-5,0
HINODE (SOLAR-B),2006-041A,2026-07-18T10:58:48.300672,14.68660447,.0017289,98.0548,215.1492,183.9439,176.1633,0,U,29479,999,5946,.53207858E-4,.261E-5,0
SHIJIAN-6 02B (SJ-6 02B),2006-046B,2026-07-19T00:04:08.960736,15.01440984,.00128881,97.7139,228.8643,322.6609,37.3718,0,U,29506,999,7551,.31202713E-4,.342E-5,0
DMSP 5D-3 F17 (USA 191),2006-050A,2026-07-18T23:45:12.589920,14.14996235,.00094972,98.7388,205.9104,331.5388,28.5266,0,U,29522,999,1692,.5540574E-5,-.33E-6,0
LAPAN-TUBSAT,2007-001A,2026-07-18T21:40:10.128864,14.85981000,.00136662,98.1355,199.8442,83.0847,277.1922,0,U,29709,999,5586,.95497722E-4,.778E-5,0
HAIYANG-1B,2007-010A,2026-07-18T21:19:25.667328,14.31033902,.00147596,98.3517,180.5073,105.7218,254.5595,0,U,31113,999,517,.29332531E-4,.36E-6,0
COSMO-SKYMED 2,2007-059A,2026-07-18T21:23:02.678208,14.82152094,.00014514,97.8896,23.0305,93.9220,266.2159,0,U,32376,999,670,.26246137E-4,.157E-5,0
CARTOSAT-2A,2008-021A,2026-07-18T21:44:53.412864,14.79280034,.0012159,97.7611,247.5297,15.9887,344.1706,0,U,32783,999,98349,.81941788E-4,.56E-5,0
CUTE-1.7+APD II (CO-65),2008-021C,2026-07-18T20:47:33.918720,15.09718955,.00068339,97.8299,181.9540,284.1756,75.8712,0,U,32785,999,98997,.12990002E-3,.2027E-4,0
SEEDS II (CO-66),2008-021J,2026-07-18T11:04:04.594656,15.33733639,.00034594,97.7530,198.8780,149.6253,210.5190,0,U,32791,999,99208,.29893879E-3,.967E-4,0
YUBILEINY (RS30),2008-025A,2026-07-18T21:17:43.121760,12.43180807,.00187141,82.5070,335.7200,240.4084,119.5132,0,U,32953,999,82363,.33226405E-3,.56E-6,0
FENGYUN 3A,2008-026A,2026-07-18T20:02:52.553472,14.19576918,.00095275,98.6886,140.0776,42.4086,317.7825,0,U,32958,999,93989,.28233505E-4,.16E-6,0
HUANJING 1A (HJ-1A),2008-041A,2026-07-18T22:10:24.834720,14.84055473,.00200896,97.6703,184.5390,38.2434,322.0202,0,U,33320,999,96311,.13119564E-3,.1046E-4,0
HUANJING 1B (HJ-1B),2008-041B,2026-07-18T23:24:01.611360,14.83367514,.00379272,97.6538,187.6633,79.3715,281.1767,0,U,33321,999,96312,.17394757E-4,.92E-6,0
SHIJIAN-6 03A (SJ-6 03A),2008-053A,2026-07-18T21:38:07.450368,15.17436244,.00095491,97.8393,234.3288,261.2499,98.7652,0,U,33408,999,96777,.1432224E-3,.2794E-4,0
SHIJIAN-6 03B (SJ-6 03B),2008-053B,2026-07-18T23:03:17.786592,15.04379049,.00177862,97.8560,220.3795,296.7183,63.2222,0,U,33409,999,96752,-.7210531E-5,-.167E-5,0
